start=new Date('2022-03-15T00:00:00.000Z').valueOf();
sats=[{"EPHEMERIS_TYPE":"0","MEAN_ANOMALY":"285.2628","CENTER_NAME":"EARTH","BSTAR":"0.00016850000000","FILE":"3359665","APOAPSIS":"548.032","NORAD_CAT_ID":"44754","REF_FRAME":"TEME","COUNTRY_CODE":"US","ECCENTRICITY":"0.00012090","OBJECT_NAME":"STARLINK-1049","GP_ID":"198767238","TLE_LINE2":"2 44754  53.0539 242.6066 0001209  74.8494 285.2628 15.06406170129303","OBJECT_TYPE":"PAYLOAD","PERIAPSIS":"546.357","MEAN_ELEMENT_THEORY":"SGP4","ELEMENT_SET_NO":"999","CLASSIFICATION_TYPE":"U","LAUNCH_DATE":"2019-11-11","INCLINATION":"53.0539","DECAY_DATE":null,"TLE_LINE1":"1 44754U 19074AT  22073.74785679  .00002230  00000-0  16850-3 0  9992","ARG_OF_PERICENTER":"74.8494","SEMIMAJOR_AXIS":"6925.330","MEAN_MOTION":"15.06406170","MEAN_MOTION_DOT":"0.00002230","RCS_SIZE":"LARGE","RA_OF_ASC_NODE":"242.6066","TIME_SYSTEM":"UTC","OBJECT_ID":"2019-074AT","SITE":"AFETR","MEAN_MOTION_DDOT":"0.0000000000000","PERIOD":"95.592","REV_AT_EPOCH":"12930","EPOCH":"2022-03-14T17:56:54.826656"},{"TLE_LINE2":"2 44755  53.0424 255.0053 0000932 279.6842  80.4078 15.90167851129683","OBJECT_TYPE":"PAYLOAD","OBJECT_NAME":"STARLINK-1050","GP_ID":"198765487","MEAN_ELEMENT_THEORY":"SGP4","PERIAPSIS":"301.192","ELEMENT_SET_NO":"999","MEAN_ANOMALY":"80.4078","CENTER_NAME":"EARTH","BSTAR":"0.00063086000000","FILE":"3359665","EPHEMERIS_TYPE":"0","REF_FRAME":"TEME","COUNTRY_CODE":"US","ECCENTRICITY":"0.00009320","APOAPSIS":"302.437","NORAD_CAT_ID":"44755","PERIOD":"90.556","RA_OF_ASC_NODE":"255.0053","TIME_SYSTEM":"UTC","SITE":"AFETR","MEAN_MOTION_DDOT":"0.0000000000000","OBJECT_ID":"2019-074AU","EPOCH":"2022-03-14T18:46:54.860160","REV_AT_EPOCH":"12968","DECAY_DATE":null,"TLE_LINE1":"1 44755U 19074AU  22073.78257940  .00198905  00000-0  63086-3 0  9990","ARG_OF_PERICENTER":"279.6842","SEMIMAJOR_AXIS":"6679.950","LAUNCH_DATE":"2019-11-11","CLASSIFICATION_TYPE":"U","INCLINATION":"53.0424","RCS_SIZE":"LARGE","MEAN_MOTION_DOT":"0.00198905","MEAN_MOTION":"15.90167851"},{"EPHEMERIS_TYPE":"0","FILE":"3359665","BSTAR":"-0.00000596630000","MEAN_ANOMALY":"293.7674","CENTER_NAME":"EARTH","NORAD_CAT_ID":"44757","APOAPSIS":"548.291","COUNTRY_CODE":"US","ECCENTRICITY":"0.00015060","REF_FRAME":"TEME","GP_ID":"198765736","OBJECT_NAME":"STARLINK-1052","OBJECT_TYPE":"PAYLOAD","TLE_LINE2":"2 44757  53.0540 262.2939 0001506  66.3473 293.7674 15.06388693129032","ELEMENT_SET_NO":"999","MEAN_ELEMENT_THEORY":"SGP4","PERIAPSIS":"546.205","INCLINATION":"53.0540","CLASSIFICATION_TYPE":"U","LAUNCH_DATE":"2019-11-11","SEMIMAJOR_AXIS":"6925.383","ARG_OF_PERICENTER":"66.3473","TLE_LINE1":"1 44757U 19074AW  22073.81605653 -.00000370  00000-0 -59663-5 0  9992","DECAY_DATE":null,"MEAN_MOTION":"15.06388693","MEAN_MOTION_DOT":"-0.00000370","RCS_SIZE":"LARGE","SITE":"AFETR","MEAN_MOTION_DDOT":"0.0000000000000","OBJECT_ID":"2019-074AW","TIME_SYSTEM":"UTC","RA_OF_ASC_NODE":"262.2939","PERIOD":"95.593","EPOCH":"2022-03-14T19:35:07.284192","REV_AT_EPOCH":"12903"},{"REV_AT_EPOCH":"12876","EPOCH":"2022-03-14T19:47:01.150368","SITE":"AFETR","OBJECT_ID":"2019-074AX","MEAN_MOTION_DDOT":"0.0000000000000","RA_OF_ASC_NODE":"282.2570","TIME_SYSTEM":"UTC","PERIOD":"95.592","MEAN_MOTION":"15.06399625","RCS_SIZE":"LARGE","MEAN_MOTION_DOT":"0.00001362","CLASSIFICATION_TYPE":"U","LAUNCH_DATE":"2019-11-11","INCLINATION":"53.0547","SEMIMAJOR_AXIS":"6925.350","TLE_LINE1":"1 44758U 19074AX  22073.82431887  .00001362  00000-0  11035-3 0  9999","DECAY_DATE":null,"ARG_OF_PERICENTER":"63.9214","ELEMENT_SET_NO":"999","MEAN_ELEMENT_THEORY":"SGP4","PERIAPSIS":"546.146","GP_ID":"198766488","OBJECT_NAME":"STARLINK-1053","OBJECT_TYPE":"PAYLOAD","TLE_LINE2":"2 44758  53.0547 282.2570 0001543  63.9214 296.1933 15.06399625128761","APOAPSIS":"548.283","NORAD_CAT_ID":"44758","COUNTRY_CODE":"US","ECCENTRICITY":"0.00015430","REF_FRAME":"TEME","EPHEMERIS_TYPE":"0","BSTAR":"0.00011035000000","FILE":"3359665","MEAN_ANOMALY":"296.1933","CENTER_NAME":"EARTH"},{"FILE":"3359665","BSTAR":"0.00016014000000","MEAN_ANOMALY":"291.6246","CENTER_NAME":"EARTH","EPHEMERIS_TYPE":"0","COUNTRY_CODE":"US","ECCENTRICITY":"0.00016890","REF_FRAME":"TEME","NORAD_CAT_ID":"44759","APOAPSIS":"548.345","OBJECT_TYPE":"PAYLOAD","TLE_LINE2":"2 44759  53.0531 282.0102 0001689  68.4923 291.6246 15.06412581126416","GP_ID":"198766739","OBJECT_NAME":"STARLINK-1054","ELEMENT_SET_NO":"999","PERIAPSIS":"546.005","MEAN_ELEMENT_THEORY":"SGP4","SEMIMAJOR_AXIS":"6925.310","ARG_OF_PERICENTER":"68.4923","DECAY_DATE":null,"TLE_LINE1":"1 44759U 19074AY  22073.88053452  .00002105  00000-0  16014-3 0  9992","INCLINATION":"53.0531","LAUNCH_DATE":"2019-11-11","CLASSIFICATION_TYPE":"U","MEAN_MOTION_DOT":"0.00002105","RCS_SIZE":"LARGE","MEAN_MOTION":"15.06412581","PERIOD":"95.591","SITE":"AFETR","MEAN_MOTION_DDOT":"0.0000000000000","OBJECT_ID":"2019-074AY","TIME_SYSTEM":"UTC","RA_OF_ASC_NODE":"282.0102","EPOCH":"2022-03-14T21:07:58.182528","REV_AT_EPOCH":"12641"},{"PERIAPSIS":"546.037","MEAN_ELEMENT_THEORY":"SGP4","ELEMENT_SET_NO":"999","OBJECT_NAME":"STARLINK-1055","GP_ID":"198765987","TLE_LINE2":"2 44760  53.0551 282.3597 0001722  56.0727 304.0425 15.06394864128765","OBJECT_TYPE":"PAYLOAD","NORAD_CAT_ID":"44760","APOAPSIS":"548.422","REF_FRAME":"TEME","COUNTRY_CODE":"US","ECCENTRICITY":"0.00017220","EPHEMERIS_TYPE":"0","MEAN_ANOMALY":"304.0425","CENTER_NAME":"EARTH","FILE":"3359665","BSTAR":"0.00001588400000","EPOCH":"2022-03-14T19:11:13.911648","REV_AT_EPOCH":"12876","TIME_SYSTEM":"UTC","RA_OF_ASC_NODE":"282.3597","SITE":"AFETR","MEAN_MOTION_DDOT":"0.0000000000000","OBJECT_ID":"2019-074AZ","PERIOD":"95.592","MEAN_MOTION":"15.06394864","RCS_SIZE":"LARGE","MEAN_MOTION_DOT":"-0.00000045","INCLINATION":"53.0551","CLASSIFICATION_TYPE":"U","LAUNCH_DATE":"2019-11-11","ARG_OF_PERICENTER":"56.0727","DECAY_DATE":null,"TLE_LINE1":"1 44760U 19074AZ  22073.79946657 -.00000045  00000-0  15884-4 0  9999","SEMIMAJOR_AXIS":"6925.364"},{"OBJECT_NAME":"STARLINK-1056","GP_ID":"198766236","TLE_LINE2":"2 44761  53.0535 282.0162 0001747  62.8471 297.2696 15.06418900128773","OBJECT_TYPE":"PAYLOAD","MEAN_ELEMENT_THEORY":"SGP4","PERIAPSIS":"545.946","ELEMENT_SET_NO":"999","EPHEMERIS_TYPE":"0","MEAN_ANOMALY":"297.2696","CENTER_NAME":"EARTH","BSTAR":"0.00056762000000","FILE":"3359665","APOAPSIS":"548.365","NORAD_CAT_ID":"44761","REF_FRAME":"TEME","COUNTRY_CODE":"US","ECCENTRICITY":"0.00017470","RA_OF_ASC_NODE":"282.0162","TIME_SYSTEM":"UTC","SITE":"AFETR","MEAN_MOTION_DDOT":"0.0000000000000","OBJECT_ID":"2019-074BA","PERIOD":"95.591","REV_AT_EPOCH":"12877","EPOCH":"2022-03-14T21:02:40.987392","CLASSIFICATION_TYPE":"U","LAUNCH_DATE":"2019-11-11","INCLINATION":"53.0535","TLE_LINE1":"1 44761U 19074BA  22073.87686328  .00008187  00000-0  56762-3 0  9998","DECAY_DATE":null,"ARG_OF_PERICENTER":"62.8471","SEMIMAJOR_AXIS":"6925.291","MEAN_MOTION":"15.06418900","RCS_SIZE":"LARGE","MEAN_MOTION_DOT":"0.00008187"},{"MEAN_MOTION_DOT":"0.00002830","RCS_SIZE":"LARGE","MEAN_MOTION":"15.06407224","SEMIMAJOR_AXIS":"6925.326","ARG_OF_PERICENTER":"63.4526","TLE_LINE1":"1 44762U 19074BB  22073.81236008  .00002830  00000-0  20879-3 0  9998","DECAY_DATE":null,"INCLINATION":"53.0521","LAUNCH_DATE":"2019-11-11","CLASSIFICATION_TYPE":"U","EPOCH":"2022-03-14T19:29:47.910912","REV_AT_EPOCH":"12903","PERIOD":"95.592","SITE":"AFETR","MEAN_MOTION_DDOT":"0.0000000000000","OBJECT_ID":"2019-074BB","TIME_SYSTEM":"UTC","RA_OF_ASC_NODE":"262.2911","ECCENTRICITY":"0.00016440","COUNTRY_CODE":"US","REF_FRAME":"TEME","NORAD_CAT_ID":"44762","APOAPSIS":"548.330","FILE":"3359665","BSTAR":"0.00020879000000","MEAN_ANOMALY":"296.6632","CENTER_NAME":"EARTH","EPHEMERIS_TYPE":"0","ELEMENT_SET_NO":"999","MEAN_ELEMENT_THEORY":"SGP4","PERIAPSIS":"546.053","OBJECT_TYPE":"PAYLOAD","TLE_LINE2":"2 44762  53.0521 262.2911 0001644  63.4526 296.6632 15.06407224129035","GP_ID":"198766988","OBJECT_NAME":"STARLINK-1057"},{"GP_ID":"198767239","OBJECT_NAME":"STARLINK-1058","OBJECT_TYPE":"PAYLOAD","TLE_LINE2":"2 44763  53.0551 282.2278 0001681  57.5256 302.5895 15.06404879128762","ELEMENT_SET_NO":"999","PERIAPSIS":"546.034","MEAN_ELEMENT_THEORY":"SGP4","EPHEMERIS_TYPE":"0","FILE":"3359665","BSTAR":"0.00010352000000","CENTER_NAME":"EARTH","MEAN_ANOMALY":"302.5895","NORAD_CAT_ID":"44763","APOAPSIS":"548.363","COUNTRY_CODE":"US","ECCENTRICITY":"0.00016810","REF_FRAME":"TEME","SITE":"AFETR","OBJECT_ID":"2019-074BC","MEAN_MOTION_DDOT":"0.0000000000000","TIME_SYSTEM":"UTC","RA_OF_ASC_NODE":"282.2278","PERIOD":"95.592","EPOCH":"2022-03-14T19:58:59.429856","REV_AT_EPOCH":"12876","INCLINATION":"53.0551","LAUNCH_DATE":"2019-11-11","CLASSIFICATION_TYPE":"U","SEMIMAJOR_AXIS":"6925.334","ARG_OF_PERICENTER":"57.5256","TLE_LINE1":"1 44763U 19074BC  22073.83263229  .00001261  00000-0  10352-3 0  9998","DECAY_DATE":null,"MEAN_MOTION":"15.06404879","RCS_SIZE":"LARGE","MEAN_MOTION_DOT":"0.00001261"},{"INCLINATION":"53.0545","CLASSIFICATION_TYPE":"U","LAUNCH_DATE":"2019-11-11","ARG_OF_PERICENTER":"58.6444","TLE_LINE1":"1 44764U 19074BD  22073.80868432 -.00001053  00000-0 -51779-4 0  9993","DECAY_DATE":null,"SEMIMAJOR_AXIS":"6925.370","MEAN_MOTION":"15.06393116","MEAN_MOTION_DOT":"-0.00001053","RCS_SIZE":"LARGE","TIME_SYSTEM":"UTC","RA_OF_ASC_NODE":"262.3268","SITE":"AFETR","MEAN_MOTION_DDOT":"0.0000000000000","OBJECT_ID":"2019-074BD","PERIOD":"95.593","REV_AT_EPOCH":"12903","EPOCH":"2022-03-14T19:24:30.325248","EPHEMERIS_TYPE":"0","MEAN_ANOMALY":"301.4702","CENTER_NAME":"EARTH","FILE":"3359665","BSTAR":"-0.00005177900000","NORAD_CAT_ID":"44764","APOAPSIS":"548.349","REF_FRAME":"TEME","COUNTRY_CODE":"US","ECCENTRICITY":"0.00016090","OBJECT_NAME":"STARLINK-1059","GP_ID":"198765488","TLE_LINE2":"2 44764  53.0545 262.3268 0001609  58.6444 301.4702 15.06393116129032","OBJECT_TYPE":"PAYLOAD","MEAN_ELEMENT_THEORY":"SGP4","PERIAPSIS":"546.120","ELEMENT_SET_NO":"999"}];
